{
  "type": "FeatureCollection",
  "features": [
    {
      "type": "Feature",
      "properties": {
        "norad_id": 34637,
        "name": "COSMOS 2251 DEB",
        "group": "cosmos-2251-debris",
        "lat": 43.551381109382234,
        "lon": -106.95588714631296,
        "alt_km": 656.7126889465599,
        "timestamp": "2025-12-19T04:59:48.701662+00:00",
        "meta_object_name": "COSMOS 2251 DEB",
        "meta_object_id": "1993-036XJ",
        "meta_epoch": "2025-12-18T17:35:35.519136",
        "meta_mean_motion": 14.6014838,
        "meta_eccentricity": 0.00492757,
        "meta_inclination": 74.0499,
        "meta_ra_of_asc_node": 89.7263,
        "meta_arg_of_pericenter": 158.6766,
        "meta_mean_anomaly": 359.0652,
        "meta_ephemeris_type": 0,
        "meta_classification_type": "U",
        "meta_norad_cat_id": 34637,
        "meta_element_set_no": 999,
        "meta_rev_at_epoch": 88614,
        "meta_bstar": 0.00066169328,
        "meta_mean_motion_dot": 3.211e-05,
        "meta_mean_motion_ddot": 0,
        "tle_line1": "1 34637U 93036XJ  25352.73304999  .00003211  00000+0  66169-3 0  9992",
        "tle_line2": "2 34637  74.0499  89.7263 0049275 158.6766 359.0652 14.60148380886141"
      },
      "geometry": {
        "type": "Point",
        "coordinates": [
          -106.95588714631296,
          43.551381109382234
        ]
      }
    },
    {
      "type": "Feature",
      "properties": {
        "norad_id": 34641,
        "name": "COSMOS 2251 DEB",
        "group": "cosmos-2251-debris",
        "lat": -59.013212766178064,
        "lon": 40.44471218773048,
        "alt_km": 716.4468644864864,
        "timestamp": "2025-12-19T04:59:48.701672+00:00",
        "meta_object_name": "COSMOS 2251 DEB",
        "meta_object_id": "1993-036XN",
        "meta_epoch": "2025-12-18T06:23:44.080224",
        "meta_mean_motion": 14.52044087,
        "meta_eccentricity": 0.0018715,
        "meta_inclination": 73.8399,
        "meta_ra_of_asc_node": 71.1098,
        "meta_arg_of_pericenter": 344.6386,
        "meta_mean_anomaly": 71.632,
        "meta_ephemeris_type": 0,
        "meta_classification_type": "U",
        "meta_norad_cat_id": 34641,
        "meta_element_set_no": 999,
        "meta_rev_at_epoch": 88336,
        "meta_bstar": 0.00072302378,
        "meta_mean_motion_dot": 2.902e-05,
        "meta_mean_motion_ddot": 0,
        "tle_line1": "1 34641U 93036XN  25352.26648241  .00002902  00000+0  72302-3 0  9998",
        "tle_line2": "2 34641  73.8399  71.1098 0018715 344.6386  71.6320 14.52044087883363"
      },
      "geometry": {
        "type": "Point",
        "coordinates": [
          40.44471218773048,
          -59.013212766178064
        ]
      }
    },
    {
      "type": "Feature",
      "properties": {
        "norad_id": 34642,
        "name": "COSMOS 2251 DEB",
        "group": "cosmos-2251-debris",
        "lat": -46.79126510819007,
        "lon": 166.37728358463306,
        "alt_km": 880.4617525516305,
        "timestamp": "2025-12-19T04:59:48.701683+00:00",
        "meta_object_name": "COSMOS 2251 DEB",
        "meta_object_id": "1993-036XP",
        "meta_epoch": "2025-12-18T09:45:59.315328",
        "meta_mean_motion": 13.98988721,
        "meta_eccentricity": 0.02067628,
        "meta_inclination": 74.0043,
        "meta_ra_of_asc_node": 329.9846,
        "meta_arg_of_pericenter": 148.5109,
        "meta_mean_anomaly": 4.4763,
        "meta_ephemeris_type": 0,
        "meta_classification_type": "U",
        "meta_norad_cat_id": 34642,
        "meta_element_set_no": 999,
        "meta_rev_at_epoch": 85372,
        "meta_bstar": 0.00065937627,
        "meta_mean_motion_dot": 1.121e-05,
        "meta_mean_motion_ddot": 0,
        "tle_line1": "1 34642U 93036XP  25352.40693652  .00001121  00000+0  65938-3 0  9990",
        "tle_line2": "2 34642  74.0043 329.9846 0206762 148.5109   4.4763 13.98988721853726"
      },
      "geometry": {
        "type": "Point",
        "coordinates": [
          166.37728358463306,
          -46.79126510819007
        ]
      }
    },
    {
      "type": "Feature",
      "properties": {
        "norad_id": 34671,
        "name": "COSMOS 2251 DEB",
        "group": "cosmos-2251-debris",
        "lat": 27.68991075645328,
        "lon": 130.45286425725237,
        "alt_km": 676.7380698355,
        "timestamp": "2025-12-19T04:59:48.701694+00:00",
        "meta_object_name": "COSMOS 2251 DEB",
        "meta_object_id": "1993-036XR",
        "meta_epoch": "2025-12-18T19:44:09.862368",
        "meta_mean_motion": 14.67035809,
        "meta_eccentricity": 0.00110081,
        "meta_inclination": 74.0266,
        "meta_ra_of_asc_node": 122.5523,
        "meta_arg_of_pericenter": 203.3177,
        "meta_mean_anomaly": 308.6526,
        "meta_ephemeris_type": 0,
        "meta_classification_type": "U",
        "meta_norad_cat_id": 34671,
        "meta_element_set_no": 999,
        "meta_rev_at_epoch": 88386,
        "meta_bstar": 0.0012203972,
        "meta_mean_motion_dot": 6.827e-05,
        "meta_mean_motion_ddot": 0,
        "tle_line1": "1 34671U 93036XR  25352.82233637  .00006827  00000+0  12204-2 0  9996",
        "tle_line2": "2 34671  74.0266 122.5523 0011008 203.3177 308.6526 14.67035809883867"
      },
      "geometry": {
        "type": "Point",
        "coordinates": [
          130.45286425725237,
          27.68991075645328
        ]
      }
    },
    {
      "type": "Feature",
      "properties": {
        "norad_id": 34672,
        "name": "COSMOS 2251 DEB",
        "group": "cosmos-2251-debris",
        "lat": -35.242705408533,
        "lon": 125.37488504300185,
        "alt_km": 790.8241017157197,
        "timestamp": "2025-12-19T04:59:48.701704+00:00",
        "meta_object_name": "COSMOS 2251 DEB",
        "meta_object_id": "1993-036XS",
        "meta_epoch": "2025-12-18T13:28:46.255872",
        "meta_mean_motion": 14.36417673,
        "meta_eccentricity": 0.00241418,
        "meta_inclination": 74.0338,
        "meta_ra_of_asc_node": 294.8922,
        "meta_arg_of_pericenter": 5.7391,
        "meta_mean_anomaly": 109.133,
        "meta_ephemeris_type": 0,
        "meta_classification_type": "U",
        "meta_norad_cat_id": 34672,
        "meta_element_set_no": 999,
        "meta_rev_at_epoch": 65261,
        "meta_bstar": 0.00020838077,
        "meta_mean_motion_dot": 5.86e-06,
        "meta_mean_motion_ddot": 0,
        "tle_line1": "1 34672U 93036XS  25352.56164648  .00000586  00000+0  20838-3 0  9992",
        "tle_line2": "2 34672  74.0338 294.8922 0024141   5.7391 109.1330 14.36417673652611"
      },
      "geometry": {
        "type": "Point",
        "coordinates": [
          125.37488504300185,
          -35.242705408533
        ]
      }
    },
    {
      "type": "Feature",
      "properties": {
        "norad_id": 34678,
        "name": "COSMOS 2251 DEB",
        "group": "cosmos-2251-debris",
        "lat": -66.1600348534677,
        "lon": -145.69689251682192,
        "alt_km": 813.4913263569324,
        "timestamp": "2025-12-19T04:59:48.701714+00:00",
        "meta_object_name": "COSMOS 2251 DEB",
        "meta_object_id": "1993-036XY",
        "meta_epoch": "2025-12-18T11:45:31.328352",
        "meta_mean_motion": 14.30066037,
        "meta_eccentricity": 0.00245747,
        "meta_inclination": 74.0376,
        "meta_ra_of_asc_node": 355.2383,
        "meta_arg_of_pericenter": 42.5322,
        "meta_mean_anomaly": 113.3622,
        "meta_ephemeris_type": 0,
        "meta_classification_type": "U",
        "meta_norad_cat_id": 34678,
        "meta_element_set_no": 999,
        "meta_rev_at_epoch": 87461,
        "meta_bstar": 2.9350181e-05,
        "meta_mean_motion_dot": 5e-07,
        "meta_mean_motion_ddot": 0,
        "tle_line1": "1 34678U 93036XY  25352.48994593  .00000050  00000+0  29350-4 0  9994",
        "tle_line2": "2 34678  74.0376 355.2383 0024574  42.5322 113.3622 14.30066037874610"
      },
      "geometry": {
        "type": "Point",
        "coordinates": [
          -145.69689251682192,
          -66.1600348534677
        ]
      }
    },
    {
      "type": "Feature",
      "properties": {
        "norad_id": 34680,
        "name": "COSMOS 2251 DEB",
        "group": "cosmos-2251-debris",
        "lat": 13.470399820870398,
        "lon": -66.42295651622743,
        "alt_km": 688.772472462183,
        "timestamp": "2025-12-19T04:59:48.701724+00:00",
        "meta_object_name": "COSMOS 2251 DEB",
        "meta_object_id": "1993-036YA",
        "meta_epoch": "2025-12-18T08:39:27.142848",
        "meta_mean_motion": 14.60682322,
        "meta_eccentricity": 0.00065553,
        "meta_inclination": 74.0428,
        "meta_ra_of_asc_node": 119.1245,
        "meta_arg_of_pericenter": 218.9141,
        "meta_mean_anomaly": 172.4418,
        "meta_ephemeris_type": 0,
        "meta_classification_type": "U",
        "meta_norad_cat_id": 34680,
        "meta_element_set_no": 999,
        "meta_rev_at_epoch": 88410,
        "meta_bstar": 0.00092042138,
        "meta_mean_motion_dot": 4.458e-05,
        "meta_mean_motion_ddot": 0,
        "tle_line1": "1 34680U 93036YA  25352.36073082  .00004458  00000+0  92042-3 0  9998",
        "tle_line2": "2 34680  74.0428 119.1245 0006555 218.9141 172.4418 14.60682322884100"
      },
      "geometry": {
        "type": "Point",
        "coordinates": [
          -66.42295651622743,
          13.470399820870398
        ]
      }
    }
  ]
}